OBJECT_NAME,OBJECT_ID,EPOCH,MEAN_MOTION,ECCENTRICITY,INCLINATION,RA_OF_ASC_NODE,ARG_OF_PERICENTER,MEAN_ANOMALY,EPHEMERIS_TYPE,CLASSIFICATION_TYPE,NORAD_CAT_ID,ELEMENT_SET_NO,REV_AT_EPOCH,BSTAR,MEAN_MOTION_DOT,MEAN_MOTION_DDOT
MONITOR-3 (RS58S),2023-091Q,2026-06-18T13:46:04.497024,15.27865205,.00130848,97.5079,233.0298,96.5438,263.7291,0,U,57180,999,16450,.31815367E-3,.8602E-4,0
MONITOR-4 (RS57S),2023-091S,2026-06-18T14:50:06.602208,15.27951714,.00130757,97.5073,233.0461,96.8342,263.4385,0,U,57182,999,16451,.3140261E-3,.8511E-4,0
MONITOR-2 (RS39S),2023-091U,2026-06-18T13:32:42.526176,15.18921487,.00127571,97.5069,227.8385,106.9687,253.2946,0,U,57184,999,16416,.20016118E-3,.4118E-4,0
SVYATOBOR 1 (RS60S),2023-091X,2026-06-18T13:36:20.869344,15.26634878,.00108586,97.5085,233.3915,90.4659,269.7824,0,U,57187,999,16452,.26443284E-3,.6867E-4,0
HORS 1,2023-091Y,2026-06-18T14:49:45.902496,15.26743272,.00103068,97.5063,233.2050,90.0790,270.1629,0,U,57188,999,16453,.28096258E-3,.7324E-4,0
VIZARD-METEO (RS38S),2023-091Z,2026-06-18T13:56:20.599008,15.36062932,.00081778,97.5088,239.0939,73.5994,286.6148,0,U,57189,999,16490,.37176139E-3,.12995E-3,0
SITRO-AIS 6 (CHIRKIN),2023-091AC,2026-06-18T14:56:21.277536,15.25957383,.0013098,97.5063,232.6471,102.1000,258.1706,0,U,57192,999,16450,.30029715E-3,.7656E-4,0
SITRO-AIS 8 (ANOKHIN),2023-091AD,2026-06-18T14:08:39.287040,15.32168530,.00117564,97.5051,235.0962,95.7724,264.4859,0,U,57193,999,16466,.38101636E-3,.11784E-3,0
SITRO-AIS 7 (FARTUSHNIY),2023-091AE,2026-06-18T13:26:51.862272,15.25644426,.00129602,97.5061,232.4091,103.2287,257.0398,0,U,57194,999,16448,.3015315E-3,.7616E-4,0
AVION KALUGA 650,2023-091AF,2026-06-18T14:38:36.212640,15.20365114,.00119088,97.5086,229.1809,105.0747,255.1807,0,U,57195,999,16424,.2009494E-3,.4312E-4,0
HORS 2,2023-091AG,2026-06-18T14:25:48.768096,15.31921979,.00092942,97.5084,236.6502,83.7292,276.5007,0,U,57196,999,16474,.35850711E-3,.10988E-3,0
A-SEANSAT-PG1,2023-091AH,2026-06-18T13:46:07.784544,15.36999596,.00082005,97.5076,239.1847,81.0604,279.1568,0,U,57197,999,16492,.39837078E-3,.1436E-3,0
SITRO-AIS 10 (BURDAEV),2023-091AK,2026-06-18T14:45:34.903584,15.38657532,.000741,97.5078,240.1913,76.0322,284.1747,0,U,57199,999,16498,.42071708E-3,.16009E-3,0
SITRO-AIS 9 (SHCHUKIN),2023-091AM,2026-06-18T13:50:34.558368,15.38162675,.00076698,97.5075,239.8813,76.2887,283.9211,0,U,57201,999,16496,.41044916E-3,.15366E-3,0
UTMN 2 (RS27S),2023-091AP,2026-06-18T13:30:44.764704,15.32080352,.00091771,97.5084,236.8032,79.7033,280.5243,0,U,57203,999,16475,.3341164E-3,.10285E-3,0
SITRO-AIS 12 (SMIRENNIY),2023-091AQ,2026-06-18T13:36:41.388480,15.38455674,.00071938,97.5089,240.3394,71.3505,288.8521,0,U,57204,999,16498,.41188668E-3,.15566E-3,0
SITRO-AIS 11 (SHEFFER),2023-091AU,2026-06-18T13:55:27.527808,15.38881283,.00070935,97.5086,240.6002,71.0926,289.1087,0,U,57208,999,16500,.40851705E-3,.15654E-3,0
H2SAT (HEINRICH HERTZ),2023-093A,2026-06-18T09:30:14.216832,1.00270862,.00008311,0.0583,105.0426,92.1404,212.7184,0,U,57213,999,1092,0,-.4E-7,0
KUZGTU 1 (RS47S),2023-091AV,2026-06-18T14:29:34.901088,15.29888680,.0012277,97.5060,234.0984,93.7490,266.5155,0,U,57217,999,16459,.32998218E-3,.9495E-4,0
QIANKUN-1,2023-103B,2026-06-15T08:46:25.019040,16.08420909,.00293788,96.1468,211.3446,145.9035,214.4147,0,U,57422,999,16700,.23232943E-4,.20233E-3,.1838074E-5
FENGYUN 3F,2023-111A,2026-06-18T14:16:41.090592,14.19939369,.00015878,98.6836,239.5774,92.4919,267.6440,0,U,57490,999,14906,.43212512E-4,.48E-6,0
HJ-2F,2023-116A,2026-06-18T15:11:14.841024,15.22336866,.00097236,97.3842,174.8262,47.9764,312.2299,0,U,57519,999,15897,.27044821E-3,.6175E-4,0
XRISM,2023-137A,2026-06-18T12:15:11.537280,15.12476157,.00079536,31.0031,351.0296,336.9213,23.1068,0,U,57800,999,15306,.21468911E-3,.3928E-4,0
METEOR-M2 4,2024-039A,2026-06-18T14:09:59.690016,14.22429656,.00073706,98.7011,128.8707,157.0729,203.0779,0,U,59051,999,11946,.22546591E-4,.6E-7,0
GRBBETA,2024-128C,2026-06-18T09:57:07.269408,15.06645417,.00404872,61.9881,211.9597,134.9163,225.5227,0,U,60237,999,10645,.16765906E-3,.2322E-4,0
TRANSPORTER-11 OBJECT A,2024-149A,2026-06-18T11:01:01.696224,15.32922508,.00029594,97.3731,249.3849,188.8383,171.2808,0,U,60468,999,10225,.20386984E-3,.6405E-4,0
WARATAH SEED-1,2024-149B,2026-06-18T11:30:03.357792,15.35972410,.00016401,97.3688,250.0549,174.5040,185.6223,0,U,60469,999,10231,.29959805E-3,.10414E-3,0
PHISAT 2,2024-149C,2026-06-18T11:38:34.755072,15.31079560,.00012085,97.3756,248.6942,170.3319,189.7946,0,U,60470,999,10219,.19516227E-3,.5782E-4,0
LEMUR-2-TOMATOKECHUP,2024-149D,2026-06-18T11:24:31.898880,15.36055818,.00015788,97.3799,251.5254,173.4213,186.7052,0,U,60471,999,10236,.25147896E-3,.875E-4,0
