MONITOR-3 (RS58S)       
1 57180U 23091Q   26169.57366316  .00008602  00000+0  31815-3 0  9993
2 57180  97.5079 233.0298 0013084  96.5438 263.7291 15.27865205164505
MONITOR-4 (RS57S)       
1 57182U 23091S   26169.61813197  .00008511  00000+0  31403-3 0  9996
2 57182  97.5073 233.0461 0013075  96.8342 263.4385 15.27951714164513
MONITOR-2 (RS39S)       
1 57184U 23091U   26169.56438109  .00004118  00000+0  20016-3 0  9995
2 57184  97.5069 227.8385 0012757 106.9687 253.2946 15.18921487164162
SVYATOBOR 1 (RS60S)     
1 57187U 23091X   26169.56690821  .00006867  00000+0  26443-3 0  9992
2 57187  97.5085 233.3915 0010858  90.4659 269.7824 15.26634878164521
HORS 1                  
1 57188U 23091Y   26169.61789239  .00007324  00000+0  28096-3 0  9996
2 57188  97.5063 233.2050 0010306  90.0790 270.1629 15.26743272164536
VIZARD-METEO (RS38S)    
1 57189U 23091Z   26169.58079397  .00012995  00000+0  37176-3 0  9999
2 57189  97.5088 239.0939 0008177  73.5994 286.6148 15.36062932164906
SITRO-AIS 6 (CHIRKIN)   
1 57192U 23091AC  26169.62246849  .00007656  00000+0  30030-3 0  9996
2 57192  97.5063 232.6471 0013098 102.1000 258.1706 15.25957383164509
SITRO-AIS 8 (ANOKHIN)   
1 57193U 23091AD  26169.58934360  .00011784  00000+0  38102-3 0  9999
2 57193  97.5051 235.0962 0011756  95.7724 264.4859 15.32168530164660
SITRO-AIS 7 (FARTUSHNIY)
1 57194U 23091AE  26169.56032248  .00007616  00000+0  30153-3 0  9999
2 57194  97.5061 232.4091 0012960 103.2287 257.0398 15.25644426164484
AVION KALUGA 650        
1 57195U 23091AF  26169.61014135  .00004312  00000+0  20095-3 0  9995
2 57195  97.5086 229.1809 0011908 105.0747 255.1807 15.20365114164241
HORS 2                  
1 57196U 23091AG  26169.60125889  .00010988  00000+0  35851-3 0  9996
2 57196  97.5084 236.6502 0009294  83.7292 276.5007 15.31921979164748
A-SEANSAT-PG1           
1 57197U 23091AH  26169.57370121  .00014360  00000+0  39837-3 0  9990
2 57197  97.5076 239.1847 0008200  81.0604 279.1568 15.36999596164920
SITRO-AIS 10 (BURDAEV)  
1 57199U 23091AK  26169.61498731  .00016009  00000+0  42072-3 0  9992
2 57199  97.5078 240.1913 0007410  76.0322 284.1747 15.38657532164987
SITRO-AIS 9 (SHCHUKIN)  
1 57201U 23091AM  26169.57678887  .00015366  00000+0  41045-3 0  9997
2 57201  97.5075 239.8813 0007669  76.2887 283.9211 15.38162675164966
UTMN 2 (RS27S)          
1 57203U 23091AP  26169.56301811  .00010285  00000+0  33412-3 0  9992
2 57203  97.5084 236.8032 0009177  79.7033 280.5243 15.32080352164755
SITRO-AIS 12 (SMIRENNIY)
1 57204U 23091AQ  26169.56714570  .00015566  00000+0  41189-3 0  9990
2 57204  97.5089 240.3394 0007193  71.3505 288.8521 15.38455674164984
SITRO-AIS 11 (SHEFFER)  
1 57208U 23091AU  26169.58017972  .00015654  00000+0  40852-3 0  9992
2 57208  97.5086 240.6002 0007093  71.0926 289.1087 15.38881283165001
H2SAT (HEINRICH HERTZ)  
1 57213U 23093A   26169.39599788 -.00000004  00000+0  00000+0 0  9990
2 57213   0.0583 105.0426 0000831  92.1404 212.7184  1.00270862 10929
KUZGTU 1 (RS47S)        
1 57217U 23091AV  26169.60387617  .00009495  00000+0  32998-3 0  9999
2 57217  97.5060 234.0984 0012277  93.7490 266.5155 15.29888680164592
QIANKUN-1               
1 57422U 23103B   26166.36556735  .00020233  18381-5  23233-4 0  9993
2 57422  96.1468 211.3446 0029378 145.9035 214.4147 16.08420909167009
FENGYUN 3F              
1 57490U 23111A   26169.59492003  .00000048  00000+0  43213-4 0  9997
2 57490  98.6836 239.5774 0001587  92.4919 267.6440 14.19939369149062
HJ-2F                   
1 57519U 23116A   26169.63281066  .00006175  00000+0  27045-3 0  9995
2 57519  97.3842 174.8262 0009723  47.9764 312.2299 15.22336866158970
XRISM                   
1 57800U 23137A   26169.51055020  .00003928  00000+0  21469-3 0  9994
2 57800  31.0031 351.0296 0007953 336.9213  23.1068 15.12476157153061
METEOR-M2 4             
1 59051U 24039A   26169.59027419  .00000006  00000+0  22547-4 0  9998
2 59051  98.7011 128.8707 0007370 157.0729 203.0779 14.22429656119469
GRBBETA                 
1 60237U 24128C   26169.41466747  .00002322  00000+0  16766-3 0  9995
2 60237  61.9881 211.9597 0040487 134.9163 225.5227 15.06645417106457
TRANSPORTER-11 OBJECT A 
1 60468U 24149A   26169.45904741  .00006405  00000+0  20387-3 0  9999
2 60468  97.3731 249.3849 0002959 188.8383 171.2808 15.32922508102253
WARATAH SEED-1          
1 60469U 24149B   26169.47920553  .00010414  00000+0  29960-3 0  9992
2 60469  97.3688 250.0549 0001640 174.5040 185.6223 15.35972410102316
PHISAT 2                
1 60470U 24149C   26169.48512448  .00005782  00000+0  19516-3 0  9993
2 60470  97.3756 248.6942 0001208 170.3319 189.7946 15.31079560102190
LEMUR-2-TOMATOKECHUP    
1 60471U 24149D   26169.47536920  .00008750  00000+0  25148-3 0  9990
2 60471  97.3799 251.5254 0001578 173.4213 186.7052 15.36055818102363
